#dP2019  9 30  0  0  0.00000000      96 __u+U ITR00 FIT  IAC
## 2073  86400.00000000   900.00000000 58756 0.0000000000000
+  117   C01C02C03C04C05C06C07C08C09C10C11C12C13C14C16C19C20
+        C21C22C23C24C25C26C27C28C29C30C32C33C34C35C36C37E01
+        E02E03E04E05E07E08E09E11E12E13E14E15E18E19E21E24E25
+        E26E27E30E31E33E36G01G02G03G04G05G06G07G08G09G10G11
+        G12G13G14G15G16G17G18G19G20G21G22G23G24G25G26G27G28
+        G29G30G31G32J01J02J03J07R01R02R03R05R06R07R08R09R11
+        R12R13R14R15R16R17R18R19R20R21R22R23R24R26R27  0  0
++        13 12 13 13 12  9  9  8  8  8  8  8  8  0  9  8  8
++         8  8  8  9  9  8  8  8  8  8  8  9  9  9  8  9  5
++         5  5  5  5  5  5  5  5  5  5  5  5  5  5  4  5  5
++         5  5  5  5  5  5  3  3  3  4  3  3  3  3  3  3  3
++         3  4  3  3  3  3  3  3  3  3  3  3  3  3  3  3  3
++         3  3  3  4  9  8  9 13  6  5  5  5 11  5  5  5  5
++         6  6  5  5  6  5  5  6  6  5  5  5  6  8  8  0  0
%c M  cc GPS ccc cccc cccc cccc cccc ccccc ccccc ccccc ccccc
%c cc cc ccc ccc cccc cccc cccc cccc ccccc ccccc ccccc ccccc
%f  0.0000000  0.000000000  0.00000000000  0.000000000000000
%f  0.0000000  0.000000000  0.00000000000  0.000000000000000
%i    0    0    0    0      0      0      0      0         0
%i    0    0    0    0      0      0      0      0         0
/* INFORMATION & ANALYSIS CENTER (IAC)            RAPID DATA
/* S/V CLOCKS ARE ALIGNED TO GNSS TIME                      
/* G:C1WC2W R:C1PC2P E:C1XC5X C:C2IC6I J:C1CC2S             
/* PCV:IGS14_2070 OL/AL:FES2004  NONE     YN ORB:CoN CLK:CoN
*  2019 09 30 17 45  0.00000000
PC01 -32298.515620  27101.023997    757.786153 999999.999999
PC02   4326.668686  41929.715581   -967.195273 999999.999999
PC03 -14729.234244  39479.757269   -316.459472 999999.999999
PC04 -39596.116699  14510.269394    304.353184 999999.999999
PC05  21894.182232  35989.660693  -1173.458096 999999.999999
PC06 -11259.172917  37178.115084 -15546.562772 999999.999999
PC07 -12443.241036  22976.709721  33262.063751 999999.999999
PC08 -26460.517196  28131.322250 -17227.500116 999999.999999
PC09  -2443.235081  41890.133063   -871.288833 999999.999999
PC10   2788.376038  28476.593725  31258.467161 999999.999999
PC11  10164.268681 -25945.359615   -340.913429 999999.999999
PC12  16851.164625  -4220.197716 -21753.047436 999999.999999
PC13 -12638.696400  29357.223134 -27589.062653 999999.999999
PC14   2199.411700 -19216.990184  20118.623385 999999.999999
PC16  -8168.223884  39341.713232 -12412.358418 999999.999999
PC19   6361.438049  23009.638029 -14445.814750 999999.999999
PC20  -9964.112209  12734.445429 -22735.602464 999999.999999
PC21  20851.749124   5481.640673  17740.547469 999999.999999
PC22  19208.103469  20126.743105   2380.626374 999999.999999
PC23 -18210.609410 -10276.604506 -18463.289218 999999.999999
PC24  20998.041374 -12846.462373 -13122.031825 999999.999999
PC25   1238.074734 -16430.493891 -22517.691085 999999.999999
PC26  27548.594239  -2867.200913   3283.587928 999999.999999
PC27 -17405.895250   3824.395995  21457.112971 999999.999999
PC28  -9344.921239 -15955.452321  20898.380480 999999.999999
PC29  -3136.154647  26508.952989  -8150.371596 999999.999999
PC30 -14563.817142  21754.640104   9644.559878 999999.999999
PC32 -20879.079328  -5306.394082 -17725.723020 999999.999999
PC33  -6360.599542 -22963.832346  14508.594631 999999.999999
PC34  14542.629438 -21911.676301  -9362.106515 999999.999999
PC35   9874.299707  15721.017660 -20825.989169 999999.999999
PC36  -1804.236043  16422.594457  22521.872007 999999.999999
PC37 -27586.971473   1913.118083  -3751.340398 999999.999999
PE01  29009.578915   4510.852095  -3794.295294 999999.999999
PE02 -29008.948349  -4446.760082   3886.729859 999999.999999
PE03 -18313.483913  -5566.719355 -22576.552838 999999.999999
PE04  11686.973764 -15880.076184  22078.506587 999999.999999
PE05 -14273.495214 -23989.076756  -9839.890905 999999.999999
PE07   1917.262537  28274.780017  -8566.802224 999999.999999
PE08 -11344.960508  16093.344953 -22106.250306 999999.999999
PE09  -2200.566140 -28238.152514   8568.555597 999999.999999
PE11   8388.939265 -23873.721744  15354.250184 999999.999999
PE12  21609.256960 -19975.904709  -3224.623953 999999.999999
PE13  -8436.968179  23908.520414 -15279.104637 999999.999999
PE14   6950.794115  26611.696959 -11512.237657 999999.999999
PE15 -21385.281918  20264.308203   2909.746594 999999.999999
PE18   3994.456327 -27054.393572  -1152.650265 999999.999999
PE19  18308.929201   7884.425979  21883.209735 999999.999999
PE21  20935.643339  15016.382176  14586.749899 999999.999999
PE24   -567.365764 -16842.306439 -24337.611162 999999.999999
PE25 -20870.224552 -15031.332236 -14632.299908 999999.999999
PE26   9629.877903  13615.214778 -24455.879372 999999.999999
PE27    495.450968  16768.570139  24398.880395 999999.999999
PE30 -20181.867300   8628.814749  19862.048789 999999.999999
PE31  20177.574731  -8658.308939 -19840.182301 999999.999999
PE33  21821.337613  -4734.238947 -19426.583675 999999.999999
PE36  -9499.131227 -13533.157497  24553.198399 999999.999999
PG01  -5670.102501  17603.352337 -19141.702290 999999.999999
PG02  21304.605946 -15584.493477   2790.301707 999999.999999
PG03   6164.441139  18595.350255 -18033.493868 999999.999999
PG04 -13285.347181  10552.704367  19987.771361 999999.999999
PG05  14262.102425  -8684.626433  20559.598118 999999.999999
PG06  23727.277559  -4211.038284 -11156.780604 999999.999999
PG07  11227.142049  11373.917063  21551.994933 999999.999999
PG08  -5603.629747  24737.461822   7535.256146 999999.999999
PG09   8400.845780  21923.360599  12364.501062 999999.999999
PG10 -23903.319051 -10730.132222  -4950.324636 999999.999999
PG11  -4824.521704  23321.922471 -12579.208833 999999.999999
PG12   -862.403673 -17386.482139 -20320.769623 999999.999999
PG13  12733.842935 -18423.238765  14111.481786 999999.999999
PG14 -15218.175698   4690.674754 -20901.853440 999999.999999
PG15   2993.151104 -25364.253022   6216.709233 999999.999999
PG16 -16036.112394   5084.720830  20474.206436 999999.999999
PG17  13785.354428   6057.546142 -21473.926254 999999.999999
PG18 -13178.891717  19041.382882 -13420.728623 999999.999999
PG19  15088.478426  -1600.347420 -22100.816461 999999.999999
PG20 -21826.076406 -14332.581133   5257.675892 999999.999999
PG21 -15062.034490  -8331.434835  20975.962004 999999.999999
PG22  -1457.774066  16551.304879 -20518.421074 999999.999999
PG23   1501.972691  26217.570056   2480.848909 999999.999999
PG24   7171.186121 -19021.991709 -17076.052519 999999.999999
PG25 -14962.406051 -18857.569246 -11715.121428 999999.999999
PG26 -22404.180177  -1179.338726  14346.138450 999999.999999
PG27 -12096.202491  15859.501948  17268.950352 999999.999999
PG28  22512.477713  12794.783133  -5036.749728 999999.999999
PG29  -4955.494222 -23648.980754  10966.755656 999999.999999
PG30  20492.256595   3578.910459  16657.752821 999999.999999
PG31 -24656.276470   5180.698334  -9109.784114 999999.999999
PG32 -14849.206069  -5507.520502 -21275.636955 999999.999999
PJ01 -20807.562326  20707.484942 -25714.626150 999999.999999
PJ02 -30168.324760  23075.318292  23128.668438 999999.999999
PJ03 -29015.395236  26170.809189  20891.372094 999999.999999
PJ07 -25401.747928  33657.227996    -41.704325 999999.999999
PR01  -1120.538329  16591.853737 -19350.838276 999999.999999
PR02  11708.059134  22568.661304  -1634.569710 999999.999999
PR03  15723.587913  13350.475469  15010.110706 999999.999999
PR05   -571.234349 -18164.416364  17915.082786 999999.999999
PR06 -12608.564387 -22176.861294    754.325117 999999.999999
PR07 -15688.097390 -13028.723468 -15319.414617 999999.999999
PR08 -10675.089352   3255.097164 -22890.148722 999999.999999
PR09 -13493.263704  -9599.375721 -19356.516259 999999.999999
PR11 -22746.567612   4809.980143  10457.830258 999999.999999
PR12  -9003.614749  10137.737237  21644.527335 999999.999999
PR13  11091.511827   9832.924238  20752.633285 999999.999999
PR14  23996.430786   3998.741429   7721.154814 999999.999999
PR15  23231.041795  -4244.375082  -9617.235484 999999.999999
PR16   8426.770671 -10504.045537 -21653.001809 999999.999999
PR17  10717.840570   2565.263630 -22994.770808 999999.999999
PR18  15877.270496 -13508.551892 -14721.327474 999999.999999
PR19  13099.812494 -21841.889857   1279.496972 999999.999999
PR20   1394.754583 -17606.313865  18424.727721 999999.999999
PR21 -11076.331668  -1717.434032  22914.833483 999999.999999
PR22 -15926.694935  15552.244068  12353.312713 999999.999999
PR23  -9822.779038  22439.000429  -7146.564668 999999.999999
PR24    454.331445  16288.909337 -19650.568129 999999.999999
PR26   3318.069603 -19498.759593  16095.764914 999999.999999
PR27  24902.710416  -1762.908666  -4964.648682 999999.999999
EOF
